STARLINK-30233
1 57302U 23096N   26061.16668981  .00029000  00000+0  17864-2 0  9995
2 57302  42.9992 263.7147 0001442 306.8972 258.6315 15.09467051  5665
STARLINK-30056
1 57622U 23119W   26061.16668981  .00062142  00000+0  37924-2 0  9999
2 57622  43.0004 122.5915 0002018 250.9465  75.3433 15.09491367  5715
STARLINK-30496
1 57919U 23147G   26061.16668981  .01805168  00000+0  10063+0 0  9995
2 57919  42.9994   7.0239 0001942 297.7549 116.9226 15.09462088  5825
STARLINK-30759
1 58122U 23162E   26061.16668981  .01353083  00000+0  76226-1 0  9998
2 58122  43.0009 173.8753 0001327 273.5612 296.4316 15.09499021  5768
